{
  "type": "FeatureCollection",
  "features": [
    {
      "type": "Feature",
      "properties": {
        "norad_id": 31663,
        "name": "FENGYUN 1C DEB",
        "group": "fengyun-1c-debris",
        "lat": 39.92369379074741,
        "lon": 80.59633284551799,
        "alt_km": 663.7081608845256,
        "timestamp": "2025-12-11T08:58:27.407587+00:00",
        "meta_object_name": "FENGYUN 1C DEB",
        "meta_object_id": "1999-025CBV",
        "meta_epoch": "2025-12-10T12:48:27.952704",
        "meta_mean_motion": 14.76382043,
        "meta_eccentricity": 0.0189656,
        "meta_inclination": 98.8376,
        "meta_ra_of_asc_node": 252.196,
        "meta_arg_of_pericenter": 244.4071,
        "meta_mean_anomaly": 113.7429,
        "meta_ephemeris_type": 0,
        "meta_classification_type": "U",
        "meta_norad_cat_id": 31663,
        "meta_element_set_no": 999,
        "meta_rev_at_epoch": 99247,
        "meta_bstar": 0.00045784,
        "meta_mean_motion_dot": 4.201e-05,
        "meta_mean_motion_ddot": 0,
        "tle_line1": "1 31663U 99025CBV 25344.53365686  .00004201  00000+0  45784-3 0  9991",
        "tle_line2": "2 31663  98.8376 252.1960 0189656 244.4071 113.7429 14.76382043992470"
      },
      "geometry": {
        "type": "Point",
        "coordinates": [
          80.59633284551799,
          39.92369379074741
        ]
      }
    },
    {
      "type": "Feature",
      "properties": {
        "norad_id": 31664,
        "name": "FENGYUN 1C DEB",
        "group": "fengyun-1c-debris",
        "lat": -67.92639430561609,
        "lon": -0.7534718071339689,
        "alt_km": 920.9959756954458,
        "timestamp": "2025-12-11T08:58:27.407600+00:00",
        "meta_object_name": "FENGYUN 1C DEB",
        "meta_object_id": "1999-025CBW",
        "meta_epoch": "2025-12-09T06:13:44.774400",
        "meta_mean_motion": 14.10289937,
        "meta_eccentricity": 0.0124702,
        "meta_inclination": 98.7511,
        "meta_ra_of_asc_node": 334.8651,
        "meta_arg_of_pericenter": 167.9401,
        "meta_mean_anomaly": 192.4803,
        "meta_ephemeris_type": 0,
        "meta_classification_type": "U",
        "meta_norad_cat_id": 31664,
        "meta_element_set_no": 999,
        "meta_rev_at_epoch": 95952,
        "meta_bstar": 0.00055995,
        "meta_mean_motion_dot": 1.025e-05,
        "meta_mean_motion_ddot": 0,
        "tle_line1": "1 31664U 99025CBW 25343.25954600  .00001025  00000+0  55995-3 0  9996",
        "tle_line2": "2 31664  98.7511 334.8651 0124702 167.9401 192.4803 14.10289937959528"
      },
      "geometry": {
        "type": "Point",
        "coordinates": [
          -0.7534718071339689,
          -67.92639430561609
        ]
      }
    },
    {
      "type": "Feature",
      "properties": {
        "norad_id": 31665,
        "name": "FENGYUN 1C DEB",
        "group": "fengyun-1c-debris",
        "lat": 75.209154937738,
        "lon": -5.795812464527754,
        "alt_km": 991.2915401497812,
        "timestamp": "2025-12-11T08:58:27.407613+00:00",
        "meta_object_name": "FENGYUN 1C DEB",
        "meta_object_id": "1999-025CBX",
        "meta_epoch": "2025-12-07T14:24:57.671136",
        "meta_mean_motion": 13.84797658,
        "meta_eccentricity": 0.01894703,
        "meta_inclination": 98.4506,
        "meta_ra_of_asc_node": 25.0684,
        "meta_arg_of_pericenter": 201.0018,
        "meta_mean_anomaly": 158.3283,
        "meta_ephemeris_type": 0,
        "meta_classification_type": "U",
        "meta_norad_cat_id": 31665,
        "meta_element_set_no": 999,
        "meta_rev_at_epoch": 93120,
        "meta_bstar": 0.0019330831,
        "meta_mean_motion_dot": 2.467e-05,
        "meta_mean_motion_ddot": 0,
        "tle_line1": "1 31665U 99025CBX 25341.60066749  .00002467  00000+0  19331-2 0  9996",
        "tle_line2": "2 31665  98.4506  25.0684 0189470 201.0018 158.3283 13.84797658931204"
      },
      "geometry": {
        "type": "Point",
        "coordinates": [
          -5.795812464527754,
          75.209154937738
        ]
      }
    },
    {
      "type": "Feature",
      "properties": {
        "norad_id": 31666,
        "name": "FENGYUN 1C DEB",
        "group": "fengyun-1c-debris",
        "lat": 20.43483032639423,
        "lon": 130.68000211333748,
        "alt_km": 629.8274828193607,
        "timestamp": "2025-12-11T08:58:27.407624+00:00",
        "meta_object_name": "FENGYUN 1C DEB",
        "meta_object_id": "1999-025CBY",
        "meta_epoch": "2025-12-10T08:36:08.180064",
        "meta_mean_motion": 14.8361827,
        "meta_eccentricity": 0.00249928,
        "meta_inclination": 98.6528,
        "meta_ra_of_asc_node": 132.8329,
        "meta_arg_of_pericenter": 158.5476,
        "meta_mean_anomaly": 201.6789,
        "meta_ephemeris_type": 0,
        "meta_classification_type": "U",
        "meta_norad_cat_id": 31666,
        "meta_element_set_no": 999,
        "meta_rev_at_epoch": 97236,
        "meta_bstar": 0.0064941762,
        "meta_mean_motion_dot": 0.00054205,
        "meta_mean_motion_ddot": 0,
        "tle_line1": "1 31666U 99025CBY 25344.35842801  .00054205  00000+0  64942-2 0  9998",
        "tle_line2": "2 31666  98.6528 132.8329 0024992 158.5476 201.6789 14.83618270972362"
      },
      "geometry": {
        "type": "Point",
        "coordinates": [
          130.68000211333748,
          20.43483032639423
        ]
      }
    },
    {
      "type": "Feature",
      "properties": {
        "norad_id": 31667,
        "name": "FENGYUN 1C DEB",
        "group": "fengyun-1c-debris",
        "lat": 65.06313222167358,
        "lon": 177.19906223010642,
        "alt_km": 773.1760755433261,
        "timestamp": "2025-12-11T08:58:27.407634+00:00",
        "meta_object_name": "FENGYUN 1C DEB",
        "meta_object_id": "1999-025CBZ",
        "meta_epoch": "2025-12-08T19:56:03.363072",
        "meta_mean_motion": 14.2349492,
        "meta_eccentricity": 0.00517979,
        "meta_inclination": 99.0845,
        "meta_ra_of_asc_node": 194.7017,
        "meta_arg_of_pericenter": 98.3602,
        "meta_mean_anomaly": 262.3452,
        "meta_ephemeris_type": 0,
        "meta_classification_type": "U",
        "meta_norad_cat_id": 31667,
        "meta_element_set_no": 999,
        "meta_rev_at_epoch": 55937,
        "meta_bstar": 0.00044657651,
        "meta_mean_motion_dot": 9.83e-06,
        "meta_mean_motion_ddot": 0,
        "tle_line1": "1 31667U 99025CBZ 25342.83059448  .00000983  00000+0  44658-3 0  9994",
        "tle_line2": "2 31667  99.0845 194.7017 0051797  98.3602 262.3452 14.23494920559377"
      },
      "geometry": {
        "type": "Point",
        "coordinates": [
          177.19906223010642,
          65.06313222167358
        ]
      }
    },
    {
      "type": "Feature",
      "properties": {
        "norad_id": 31672,
        "name": "FENGYUN 1C DEB",
        "group": "fengyun-1c-debris",
        "lat": 8.07512236368622,
        "lon": 171.60446019257787,
        "alt_km": 653.5342470309488,
        "timestamp": "2025-12-11T08:58:27.407645+00:00",
        "meta_object_name": "FENGYUN 1C DEB",
        "meta_object_id": "1999-025CCE",
        "meta_epoch": "2025-12-09T18:52:12.464832",
        "meta_mean_motion": 14.50862941,
        "meta_eccentricity": 0.0108049,
        "meta_inclination": 98.9574,
        "meta_ra_of_asc_node": 171.1973,
        "meta_arg_of_pericenter": 350.6234,
        "meta_mean_anomaly": 9.2939,
        "meta_ephemeris_type": 0,
        "meta_classification_type": "U",
        "meta_norad_cat_id": 31672,
        "meta_element_set_no": 999,
        "meta_rev_at_epoch": 64828,
        "meta_bstar": 0.002472233,
        "meta_mean_motion_dot": 0.00010473,
        "meta_mean_motion_ddot": 0,
        "tle_line1": "1 31672U 99025CCE 25343.78625538  .00010473  00000+0  24722-2 0  9998",
        "tle_line2": "2 31672  98.9574 171.1973 0108049 350.6234   9.2939 14.50862941648287"
      },
      "geometry": {
        "type": "Point",
        "coordinates": [
          171.60446019257787,
          8.07512236368622
        ]
      }
    },
    {
      "type": "Feature",
      "properties": {
        "norad_id": 31673,
        "name": "FENGYUN 1C DEB",
        "group": "fengyun-1c-debris",
        "lat": 80.15892497474591,
        "lon": 71.97496763977163,
        "alt_km": 708.4324963277304,
        "timestamp": "2025-12-11T08:58:27.407655+00:00",
        "meta_object_name": "FENGYUN 1C DEB",
        "meta_object_id": "1999-025CCF",
        "meta_epoch": "2025-12-08T06:45:52.085376",
        "meta_mean_motion": 14.31934796,
        "meta_eccentricity": 0.01258202,
        "meta_inclination": 99.3746,
        "meta_ra_of_asc_node": 176.3979,
        "meta_arg_of_pericenter": 61.7337,
        "meta_mean_anomaly": 299.6476,
        "meta_ephemeris_type": 0,
        "meta_classification_type": "U",
        "meta_norad_cat_id": 31673,
        "meta_element_set_no": 999,
        "meta_rev_at_epoch": 64827,
        "meta_bstar": 0.00037901673,
        "meta_mean_motion_dot": 1.056e-05,
        "meta_mean_motion_ddot": 0,
        "tle_line1": "1 31673U 99025CCF 25342.28185284  .00001056  00000+0  37902-3 0  9994",
        "tle_line2": "2 31673  99.3746 176.3979 0125820  61.7337 299.6476 14.31934796648274"
      },
      "geometry": {
        "type": "Point",
        "coordinates": [
          71.97496763977163,
          80.15892497474591
        ]
      }
    }
  ]
}